CYGNUS NG-23            
1 65616U 25208A   26007.20987549  .00008643  00000+0  16393-3 0  9995
2 65616  51.6331  16.3696 0007633 350.2178   9.8661 15.49149320   223
DRAGONFLY               
1 65729U 98067XH  26007.27563822  .00306648  00000+0  12894-2 0  9991
2 65729  51.6233   4.0046 0008576  65.0899 295.0995 15.84068835 17193
1998-067XK              
1 65731U 98067XK  26007.21988973  .00123601  00000+0  92214-3 0  9997
2 65731  51.6286   7.4337 0005063  39.6016 320.5351 15.71835382 17140
RSP-03                  
1 65732U 98067XL  26007.22565216  .00184312  00000+0  10849-2 0  9999
2 65732  51.6256   5.9482 0006285  46.7671 313.3853 15.77101566 17171
GHS-01                  
1 65733U 98067XM  26005.45613664  .00530400  11857-3  17134-2 0  9997
2 65733  51.6261  12.1150 0009432  59.2449 300.9485 15.90206589 16931
YOTSUBA-KULOVER         
1 65941U 98067XN  26007.25076815  .00074294  00000+0  78141-3 0  9993
2 65941  51.6293  11.3967 0003866  66.8029 293.3372 15.63625021 13840
BOTAN                   
1 65942U 98067XP  26007.24627023  .00134053  00000+0  10966-2 0  9996
2 65942  51.6274   9.8594 0004654  58.4232 301.7219 15.69595591 13867
E-KAGAKU-1              
1 65943U 98067XQ  26007.25065983  .00074361  00000+0  78199-3 0  9997
2 65943  51.6305  11.4021 0002412  61.6805 298.4433 15.63633295 13845
HRC MONOBLOCK CAMERA    
1 66052U 98067XR  26007.42049101  .00034159  00000+0  48403-3 0  9998
2 66052  51.6308  13.2784 0001280 326.4579  33.6331 15.56141127 12832
HTV-X1                  
1 66174U 25241A   26007.20987549  .00008643  00000+0  16393-3 0  9992
2 66174  51.6331  16.3696 0007633 350.2178   9.8661 15.49149320   515
SZ-21 MODULE            
1 66515U 25246C   26007.28584796  .00025295  00000+0  26227-3 0  9990
2 66515  41.4744 220.0380 0001525  74.5254 285.5754 15.64076848  8445
SHENZHOU-22             
1 66645U 25272A   26007.26300282  .00013052  00000+0  15877-3 0  9994
2 66645  41.4649 221.6308 0011070 236.8371 123.1406 15.60254777267497
