CCSDS_OMM_VERS = 2.0
CREATION_DATE  = 
ORIGINATOR     = 

OBJECT_NAME    = CYGNUS NG-23
OBJECT_ID      = 2025-208A
CENTER_NAME    = EARTH
REF_FRAME      = TEME
TIME_SYSTEM    = UTC
MEAN_ELEMENT_THEORY = SGP/SGP4

EPOCH          = 2026-01-07T05:02:13.242336
MEAN_MOTION    = 15.49149320
ECCENTRICITY   = .00076333
INCLINATION    = 51.6331
RA_OF_ASC_NODE = 16.3696
ARG_OF_PERICENTER = 350.2178
MEAN_ANOMALY   = 9.8661

EPHEMERIS_TYPE = 0
CLASSIFICATION_TYPE = U
NORAD_CAT_ID   = 65616
ELEMENT_SET_NO = 999
REV_AT_EPOCH   = 22
BSTAR          = .16393488E-3
MEAN_MOTION_DOT = .8643E-4
MEAN_MOTION_DDOT = 0

CCSDS_OMM_VERS = 2.0
CREATION_DATE  = 
ORIGINATOR     = 

OBJECT_NAME    = DRAGONFLY
OBJECT_ID      = 1998-067XH
CENTER_NAME    = EARTH
REF_FRAME      = TEME
TIME_SYSTEM    = UTC
MEAN_ELEMENT_THEORY = SGP/SGP4

EPOCH          = 2026-01-07T06:36:55.142208
MEAN_MOTION    = 15.84068835
ECCENTRICITY   = .0008576
INCLINATION    = 51.6233
RA_OF_ASC_NODE = 4.0046
ARG_OF_PERICENTER = 65.0899
MEAN_ANOMALY   = 295.0995

EPHEMERIS_TYPE = 0
CLASSIFICATION_TYPE = U
NORAD_CAT_ID   = 65729
ELEMENT_SET_NO = 999
REV_AT_EPOCH   = 1719
BSTAR          = .12894E-2
MEAN_MOTION_DOT = .306648E-2
MEAN_MOTION_DDOT = 0

CCSDS_OMM_VERS = 2.0
CREATION_DATE  = 
ORIGINATOR     = 

OBJECT_NAME    = 1998-067XK
OBJECT_ID      = 1998-067XK
CENTER_NAME    = EARTH
REF_FRAME      = TEME
TIME_SYSTEM    = UTC
MEAN_ELEMENT_THEORY = SGP/SGP4

EPOCH          = 2026-01-07T05:16:38.472672
MEAN_MOTION    = 15.71835382
ECCENTRICITY   = .0005063
INCLINATION    = 51.6286
RA_OF_ASC_NODE = 7.4337
ARG_OF_PERICENTER = 39.6016
MEAN_ANOMALY   = 320.5351

EPHEMERIS_TYPE = 0
CLASSIFICATION_TYPE = U
NORAD_CAT_ID   = 65731
ELEMENT_SET_NO = 999
REV_AT_EPOCH   = 1714
BSTAR          = .92214E-3
MEAN_MOTION_DOT = .123601E-2
MEAN_MOTION_DDOT = 0

CCSDS_OMM_VERS = 2.0
CREATION_DATE  = 
ORIGINATOR     = 

OBJECT_NAME    = RSP-03
OBJECT_ID      = 1998-067XL
CENTER_NAME    = EARTH
REF_FRAME      = TEME
TIME_SYSTEM    = UTC
MEAN_ELEMENT_THEORY = SGP/SGP4

EPOCH          = 2026-01-07T05:24:56.346624
MEAN_MOTION    = 15.77101566
ECCENTRICITY   = .0006285
INCLINATION    = 51.6256
RA_OF_ASC_NODE = 5.9482
ARG_OF_PERICENTER = 46.7671
MEAN_ANOMALY   = 313.3853

EPHEMERIS_TYPE = 0
CLASSIFICATION_TYPE = U
NORAD_CAT_ID   = 65732
ELEMENT_SET_NO = 999
REV_AT_EPOCH   = 1717
BSTAR          = .10849E-2
MEAN_MOTION_DOT = .184312E-2
MEAN_MOTION_DDOT = 0

CCSDS_OMM_VERS = 2.0
CREATION_DATE  = 
ORIGINATOR     = 

OBJECT_NAME    = GHS-01
OBJECT_ID      = 1998-067XM
CENTER_NAME    = EARTH
REF_FRAME      = TEME
TIME_SYSTEM    = UTC
MEAN_ELEMENT_THEORY = SGP/SGP4

EPOCH          = 2026-01-05T10:56:50.205696
MEAN_MOTION    = 15.90206589
ECCENTRICITY   = .00094327
INCLINATION    = 51.6261
RA_OF_ASC_NODE = 12.1150
ARG_OF_PERICENTER = 59.2449
MEAN_ANOMALY   = 300.9485

EPHEMERIS_TYPE = 0
CLASSIFICATION_TYPE = U
NORAD_CAT_ID   = 65733
ELEMENT_SET_NO = 999
REV_AT_EPOCH   = 1693
BSTAR          = .17134254E-2
MEAN_MOTION_DOT = .5304E-2
MEAN_MOTION_DDOT = .11857477E-3

CCSDS_OMM_VERS = 2.0
CREATION_DATE  = 
ORIGINATOR     = 

OBJECT_NAME    = YOTSUBA-KULOVER
OBJECT_ID      = 1998-067XN
CENTER_NAME    = EARTH
REF_FRAME      = TEME
TIME_SYSTEM    = UTC
MEAN_ELEMENT_THEORY = SGP/SGP4

EPOCH          = 2026-01-07T06:01:06.368160
MEAN_MOTION    = 15.63625021
ECCENTRICITY   = .00038665
INCLINATION    = 51.6293
RA_OF_ASC_NODE = 11.3967
ARG_OF_PERICENTER = 66.8029
MEAN_ANOMALY   = 293.3372

EPHEMERIS_TYPE = 0
CLASSIFICATION_TYPE = U
NORAD_CAT_ID   = 65941
ELEMENT_SET_NO = 999
REV_AT_EPOCH   = 1384
BSTAR          = .78141173E-3
MEAN_MOTION_DOT = .74294E-3
MEAN_MOTION_DDOT = 0

CCSDS_OMM_VERS = 2.0
CREATION_DATE  = 
ORIGINATOR     = 

OBJECT_NAME    = BOTAN
OBJECT_ID      = 1998-067XP
CENTER_NAME    = EARTH
REF_FRAME      = TEME
TIME_SYSTEM    = UTC
MEAN_ELEMENT_THEORY = SGP/SGP4

EPOCH          = 2026-01-07T05:54:37.747872
MEAN_MOTION    = 15.69595591
ECCENTRICITY   = .00046548
INCLINATION    = 51.6274
RA_OF_ASC_NODE = 9.8594
ARG_OF_PERICENTER = 58.4232
MEAN_ANOMALY   = 301.7219

EPHEMERIS_TYPE = 0
CLASSIFICATION_TYPE = U
NORAD_CAT_ID   = 65942
ELEMENT_SET_NO = 999
REV_AT_EPOCH   = 1386
BSTAR          = .10965536E-2
MEAN_MOTION_DOT = .134053E-2
MEAN_MOTION_DDOT = 0

CCSDS_OMM_VERS = 2.0
CREATION_DATE  = 
ORIGINATOR     = 

OBJECT_NAME    = E-KAGAKU-1
OBJECT_ID      = 1998-067XQ
CENTER_NAME    = EARTH
REF_FRAME      = TEME
TIME_SYSTEM    = UTC
MEAN_ELEMENT_THEORY = SGP/SGP4

EPOCH          = 2026-01-07T06:00:57.009312
MEAN_MOTION    = 15.63633295
ECCENTRICITY   = .00024128
INCLINATION    = 51.6305
RA_OF_ASC_NODE = 11.4021
ARG_OF_PERICENTER = 61.6805
MEAN_ANOMALY   = 298.4433

EPHEMERIS_TYPE = 0
CLASSIFICATION_TYPE = U
NORAD_CAT_ID   = 65943
ELEMENT_SET_NO = 999
REV_AT_EPOCH   = 1384
BSTAR          = .78199395E-3
MEAN_MOTION_DOT = .74361E-3
MEAN_MOTION_DDOT = 0

CCSDS_OMM_VERS = 2.0
CREATION_DATE  = 
ORIGINATOR     = 

OBJECT_NAME    = HRC MONOBLOCK CAMERA
OBJECT_ID      = 1998-067XR
CENTER_NAME    = EARTH
REF_FRAME      = TEME
TIME_SYSTEM    = UTC
MEAN_ELEMENT_THEORY = SGP/SGP4

EPOCH          = 2026-01-07T10:05:30.423264
MEAN_MOTION    = 15.56141127
ECCENTRICITY   = .000128
INCLINATION    = 51.6308
RA_OF_ASC_NODE = 13.2784
ARG_OF_PERICENTER = 326.4579
MEAN_ANOMALY   = 33.6331

EPHEMERIS_TYPE = 0
CLASSIFICATION_TYPE = U
NORAD_CAT_ID   = 66052
ELEMENT_SET_NO = 999
REV_AT_EPOCH   = 1283
BSTAR          = .48403E-3
MEAN_MOTION_DOT = .34159E-3
MEAN_MOTION_DDOT = 0

CCSDS_OMM_VERS = 2.0
CREATION_DATE  = 
ORIGINATOR     = 

OBJECT_NAME    = HTV-X1
OBJECT_ID      = 2025-241A
CENTER_NAME    = EARTH
REF_FRAME      = TEME
TIME_SYSTEM    = UTC
MEAN_ELEMENT_THEORY = SGP/SGP4

EPOCH          = 2026-01-07T05:02:13.242336
MEAN_MOTION    = 15.49149320
ECCENTRICITY   = .00076333
INCLINATION    = 51.6331
RA_OF_ASC_NODE = 16.3696
ARG_OF_PERICENTER = 350.2178
MEAN_ANOMALY   = 9.8661

EPHEMERIS_TYPE = 0
CLASSIFICATION_TYPE = U
NORAD_CAT_ID   = 66174
ELEMENT_SET_NO = 999
REV_AT_EPOCH   = 51
BSTAR          = .16393488E-3
MEAN_MOTION_DOT = .8643E-4
MEAN_MOTION_DDOT = 0

CCSDS_OMM_VERS = 2.0
CREATION_DATE  = 
ORIGINATOR     = 

OBJECT_NAME    = SZ-21 MODULE
OBJECT_ID      = 2025-246C
CENTER_NAME    = EARTH
REF_FRAME      = TEME
TIME_SYSTEM    = UTC
MEAN_ELEMENT_THEORY = SGP/SGP4

EPOCH          = 2026-01-07T06:51:37.263744
MEAN_MOTION    = 15.64076848
ECCENTRICITY   = .0001525
INCLINATION    = 41.4744
RA_OF_ASC_NODE = 220.0380
ARG_OF_PERICENTER = 74.5254
MEAN_ANOMALY   = 285.5754

EPHEMERIS_TYPE = 0
CLASSIFICATION_TYPE = U
NORAD_CAT_ID   = 66515
ELEMENT_SET_NO = 999
REV_AT_EPOCH   = 844
BSTAR          = .26227E-3
MEAN_MOTION_DOT = .25295E-3
MEAN_MOTION_DDOT = 0

CCSDS_OMM_VERS = 2.0
CREATION_DATE  = 
ORIGINATOR     = 

OBJECT_NAME    = SHENZHOU-22
OBJECT_ID      = 2025-272A
CENTER_NAME    = EARTH
REF_FRAME      = TEME
TIME_SYSTEM    = UTC
MEAN_ELEMENT_THEORY = SGP/SGP4

EPOCH          = 2026-01-07T06:18:43.443648
MEAN_MOTION    = 15.60254777
ECCENTRICITY   = .001107
INCLINATION    = 41.4649
RA_OF_ASC_NODE = 221.6308
ARG_OF_PERICENTER = 236.8371
MEAN_ANOMALY   = 123.1406

EPHEMERIS_TYPE = 0
CLASSIFICATION_TYPE = U
NORAD_CAT_ID   = 66645
ELEMENT_SET_NO = 999
REV_AT_EPOCH   = 26749
BSTAR          = .15877244E-3
MEAN_MOTION_DOT = .13052E-3
MEAN_MOTION_DDOT = 0

